{
    "links": {
        "self": "http://www.neowsapp.com/rest/v1/neo/3545483?api_key=iIulBulltgU6a56xZRHN4H3l9WmuAYTsLGpBGhQ2"
    },
    "id": "3545483",
    "neo_reference_id": "3545483",
    "name": "(2010 RY3)",
    "designation": "2010 RY3",
    "nasa_jpl_url": "http://ssd.jpl.nasa.gov/sbdb.cgi?sstr=3545483",
    "absolute_magnitude_h": 25.1,
    "estimated_diameter": {
        "kilometers": {
            "estimated_diameter_min": 0.0253837029,
            "estimated_diameter_max": 0.0567596853
        },
        "meters": {
            "estimated_diameter_min": 25.3837029364,
            "estimated_diameter_max": 56.7596852866
        },
        "miles": {
            "estimated_diameter_min": 0.0157726969,
            "estimated_diameter_max": 0.0352688224
        },
        "feet": {
            "estimated_diameter_min": 83.279867942,
            "estimated_diameter_max": 186.2194458756
        }
    },
    "is_potentially_hazardous_asteroid": false,
    "close_approach_data": [
        {
            "close_approach_date": "2010-09-06",
            "close_approach_date_full": "2010-Sep-06 19:22",
            "epoch_date_close_approach": 1283800920000,
            "relative_velocity": {
                "kilometers_per_second": "11.1919355919",
                "kilometers_per_hour": "40290.9681309473",
                "miles_per_hour": "25035.2407255878"
            },
            "miss_distance": {
                "astronomical": "0.0735741738",
                "lunar": "28.6203536082",
                "kilometers": "11006539.687489806",
                "miles": "6839146.6263630828"
            },
            "orbiting_body": "Earth"
        }
    ],
    "orbital_data": {
        "orbit_id": "9",
        "orbit_determination_date": "2017-04-06 08:56:54",
        "first_observation_date": "2010-09-02",
        "last_observation_date": "2010-09-09",
        "data_arc_in_days": 7,
        "observations_used": 28,
        "orbit_uncertainty": "9",
        "minimum_orbit_intersection": ".0129852",
        "jupiter_tisserand_invariant": "3.103",
        "epoch_osculation": "2455443.5",
        "eccentricity": ".6196711878456063",
        "semi_major_axis": "2.60766541505519",
        "inclination": "4.416936497092696",
        "ascending_node_longitude": "171.9707638919273",
        "orbital_period": "1538.070446729652",
        "perihelion_distance": ".9917702898040344",
        "perihelion_argument": "206.0802234097318",
        "aphelion_distance": "4.223560540306345",
        "perihelion_time": "2455471.393118755865",
        "mean_anomaly": "353.4713505655984",
        "mean_motion": ".2340595001779379",
        "equinox": "J2000",
        "orbit_class": {
            "orbit_class_type": "APO",
            "orbit_class_description": "Near-Earth asteroid orbits which cross the Earth’s orbit similar to that of 1862 Apollo",
            "orbit_class_range": "a (semi-major axis) > 1.0 AU; q (perihelion) < 1.017 AU"
        }
    },
    "is_sentry_object": false
}